{
    "links": {
        "self": "http://www.neowsapp.com/rest/v1/neo/3766994?api_key=iIulBulltgU6a56xZRHN4H3l9WmuAYTsLGpBGhQ2"
    },
    "id": "3766994",
    "neo_reference_id": "3766994",
    "name": "(2017 BY5)",
    "designation": "2017 BY5",
    "nasa_jpl_url": "http://ssd.jpl.nasa.gov/sbdb.cgi?sstr=3766994",
    "absolute_magnitude_h": 25.8,
    "estimated_diameter": {
        "kilometers": {
            "estimated_diameter_min": 0.0183888672,
            "estimated_diameter_max": 0.0411187571
        },
        "meters": {
            "estimated_diameter_min": 18.388867207,
            "estimated_diameter_max": 41.1187571041
        },
        "miles": {
            "estimated_diameter_min": 0.0114263088,
            "estimated_diameter_max": 0.0255500032
        },
        "feet": {
            "estimated_diameter_min": 60.3309310875,
            "estimated_diameter_max": 134.9040630575
        }
    },
    "is_potentially_hazardous_asteroid": false,
    "close_approach_data": [
        {
            "close_approach_date": "2017-01-31",
            "close_approach_date_full": "2017-Jan-31 08:59",
            "epoch_date_close_approach": 1485853140000,
            "relative_velocity": {
                "kilometers_per_second": "9.4826268217",
                "kilometers_per_hour": "34137.4565579697",
                "miles_per_hour": "21211.6879373673"
            },
            "miss_distance": {
                "astronomical": "0.0267657581",
                "lunar": "10.4118799009",
                "kilometers": "4004100.400695247",
                "miles": "2488032.6173865286"
            },
            "orbiting_body": "Earth"
        }
    ],
    "orbital_data": {
        "orbit_id": "4",
        "orbit_determination_date": "2019-12-04 07:16:16",
        "first_observation_date": "2017-01-24",
        "last_observation_date": "2017-01-30",
        "data_arc_in_days": 6,
        "observations_used": 17,
        "orbit_uncertainty": "7",
        "minimum_orbit_intersection": ".0163538",
        "jupiter_tisserand_invariant": "3.612",
        "epoch_osculation": "2459000.5",
        "eccentricity": ".5100713687250568",
        "semi_major_axis": "2.031840039068074",
        "inclination": "11.97893115073021",
        "ascending_node_longitude": "126.1900330022818",
        "orbital_period": "1057.870966944016",
        "perihelion_distance": ".9954566093102489",
        "perihelion_argument": "11.12718127892472",
        "aphelion_distance": "3.0682234688259",
        "perihelion_time": "2458847.987234239609",
        "mean_anomaly": "51.90103272457646",
        "mean_motion": ".3403061538213588",
        "equinox": "J2000",
        "orbit_class": {
            "orbit_class_type": "APO",
            "orbit_class_description": "Near-Earth asteroid orbits which cross the Earth’s orbit similar to that of 1862 Apollo",
            "orbit_class_range": "a (semi-major axis) > 1.0 AU; q (perihelion) < 1.017 AU"
        }
    },
    "is_sentry_object": false
}